FENGYUN 1C DEB          
1 30067U 99025PU  17345.88268236  .00000171  00000-0  63191-4 0  9997
2 30067  98.7236 102.1566 0165240  41.1914  75.0792 14.37690299571555
